CCSDS_OMM_VERS = 2.0
CREATION_DATE  = 
ORIGINATOR     = 

OBJECT_NAME    = STARLINK-36237
OBJECT_ID      = 2026-059S
CENTER_NAME    = EARTH
REF_FRAME      = TEME
TIME_SYSTEM    = UTC
MEAN_ELEMENT_THEORY = SGP/SGP4

EPOCH          = 2026-04-03T14:08:42.526176
MEAN_MOTION    = 15.81013885
ECCENTRICITY   = .00010705
INCLINATION    = 53.1599
RA_OF_ASC_NODE = 237.9619
ARG_OF_PERICENTER = 71.6870
MEAN_ANOMALY   = 288.4269

EPHEMERIS_TYPE = 0
CLASSIFICATION_TYPE = U
NORAD_CAT_ID   = 68337
ELEMENT_SET_NO = 999
REV_AT_EPOCH   = 191
BSTAR          = .18057733E-2
MEAN_MOTION_DOT = .374001E-2
MEAN_MOTION_DDOT = 0

CCSDS_OMM_VERS = 2.0
CREATION_DATE  = 
ORIGINATOR     = 

OBJECT_NAME    = STARLINK-36254
OBJECT_ID      = 2026-059T
CENTER_NAME    = EARTH
REF_FRAME      = TEME
TIME_SYSTEM    = UTC
MEAN_ELEMENT_THEORY = SGP/SGP4

EPOCH          = 2026-04-03T12:35:31.711776
MEAN_MOTION    = 15.80858082
ECCENTRICITY   = .00023135
INCLINATION    = 53.1602
RA_OF_ASC_NODE = 238.2689
ARG_OF_PERICENTER = 336.2859
MEAN_ANOMALY   = 23.8057

EPHEMERIS_TYPE = 0
CLASSIFICATION_TYPE = U
NORAD_CAT_ID   = 68338
ELEMENT_SET_NO = 999
REV_AT_EPOCH   = 190
BSTAR          = .150232E-2
MEAN_MOTION_DOT = .306365E-2
MEAN_MOTION_DDOT = 0

CCSDS_OMM_VERS = 2.0
CREATION_DATE  = 
ORIGINATOR     = 

OBJECT_NAME    = STARLINK-37200
OBJECT_ID      = 2026-059U
CENTER_NAME    = EARTH
REF_FRAME      = TEME
TIME_SYSTEM    = UTC
MEAN_ELEMENT_THEORY = SGP/SGP4

EPOCH          = 2026-04-03T12:36:36.561024
MEAN_MOTION    = 15.80796263
ECCENTRICITY   = .00009651
INCLINATION    = 53.1597
RA_OF_ASC_NODE = 238.2736
ARG_OF_PERICENTER = 112.0386
MEAN_ANOMALY   = 248.0739

EPHEMERIS_TYPE = 0
CLASSIFICATION_TYPE = U
NORAD_CAT_ID   = 68339
ELEMENT_SET_NO = 999
REV_AT_EPOCH   = 190
BSTAR          = .76118306E-3
MEAN_MOTION_DOT = .151661E-2
MEAN_MOTION_DDOT = 0

CCSDS_OMM_VERS = 2.0
CREATION_DATE  = 
ORIGINATOR     = 

OBJECT_NAME    = STARLINK-37185
OBJECT_ID      = 2026-059V
CENTER_NAME    = EARTH
REF_FRAME      = TEME
TIME_SYSTEM    = UTC
MEAN_ELEMENT_THEORY = SGP/SGP4

EPOCH          = 2026-04-03T14:05:27.956832
MEAN_MOTION    = 15.81010365
ECCENTRICITY   = .00002971
INCLINATION    = 53.1601
RA_OF_ASC_NODE = 237.9465
ARG_OF_PERICENTER = 51.5781
MEAN_ANOMALY   = 308.5268

EPHEMERIS_TYPE = 0
CLASSIFICATION_TYPE = U
NORAD_CAT_ID   = 68340
ELEMENT_SET_NO = 999
REV_AT_EPOCH   = 191
BSTAR          = .17202031E-2
MEAN_MOTION_DOT = .355435E-2
MEAN_MOTION_DDOT = 0

CCSDS_OMM_VERS = 2.0
CREATION_DATE  = 
ORIGINATOR     = 

OBJECT_NAME    = STARLINK-37181
OBJECT_ID      = 2026-059W
CENTER_NAME    = EARTH
REF_FRAME      = TEME
TIME_SYSTEM    = UTC
MEAN_ELEMENT_THEORY = SGP/SGP4

EPOCH          = 2026-04-03T14:04:24.711168
MEAN_MOTION    = 15.80826773
ECCENTRICITY   = .00009804
INCLINATION    = 53.1602
RA_OF_ASC_NODE = 237.9420
ARG_OF_PERICENTER = 66.4598
MEAN_ANOMALY   = 293.6528

EPHEMERIS_TYPE = 0
CLASSIFICATION_TYPE = U
NORAD_CAT_ID   = 68341
ELEMENT_SET_NO = 999
REV_AT_EPOCH   = 191
BSTAR          = .10777592E-2
MEAN_MOTION_DOT = .216982E-2
MEAN_MOTION_DDOT = 0

CCSDS_OMM_VERS = 2.0
CREATION_DATE  = 
ORIGINATOR     = 

OBJECT_NAME    = STARLINK-37192
OBJECT_ID      = 2026-059X
CENTER_NAME    = EARTH
REF_FRAME      = TEME
TIME_SYSTEM    = UTC
MEAN_ELEMENT_THEORY = SGP/SGP4

EPOCH          = 2026-04-03T14:02:15.126720
MEAN_MOTION    = 15.80821483
ECCENTRICITY   = .00009577
INCLINATION    = 53.1599
RA_OF_ASC_NODE = 237.9314
ARG_OF_PERICENTER = 110.0831
MEAN_ANOMALY   = 250.0295

EPHEMERIS_TYPE = 0
CLASSIFICATION_TYPE = U
NORAD_CAT_ID   = 68342
ELEMENT_SET_NO = 999
REV_AT_EPOCH   = 191
BSTAR          = .10692754E-2
MEAN_MOTION_DOT = .21517E-2
MEAN_MOTION_DDOT = 0

CCSDS_OMM_VERS = 2.0
CREATION_DATE  = 
ORIGINATOR     = 

OBJECT_NAME    = STARLINK-37158
OBJECT_ID      = 2026-059Y
CENTER_NAME    = EARTH
REF_FRAME      = TEME
TIME_SYSTEM    = UTC
MEAN_ELEMENT_THEORY = SGP/SGP4

EPOCH          = 2026-04-03T15:32:11.255136
MEAN_MOTION    = 15.80958497
ECCENTRICITY   = .00016065
INCLINATION    = 53.1598
RA_OF_ASC_NODE = 237.6100
ARG_OF_PERICENTER = 32.6482
MEAN_ANOMALY   = 327.4640

EPHEMERIS_TYPE = 0
CLASSIFICATION_TYPE = U
NORAD_CAT_ID   = 68343
ELEMENT_SET_NO = 999
REV_AT_EPOCH   = 192
BSTAR          = .13281522E-2
MEAN_MOTION_DOT = .270889E-2
MEAN_MOTION_DDOT = 0

CCSDS_OMM_VERS = 2.0
CREATION_DATE  = 
ORIGINATOR     = 

OBJECT_NAME    = STARLINK-36380
OBJECT_ID      = 2026-059Z
CENTER_NAME    = EARTH
REF_FRAME      = TEME
TIME_SYSTEM    = UTC
MEAN_ELEMENT_THEORY = SGP/SGP4

EPOCH          = 2026-04-03T14:03:19.442880
MEAN_MOTION    = 15.80880607
ECCENTRICITY   = .00006664
INCLINATION    = 53.1607
RA_OF_ASC_NODE = 237.9373
ARG_OF_PERICENTER = 119.0321
MEAN_ANOMALY   = 241.0769

EPHEMERIS_TYPE = 0
CLASSIFICATION_TYPE = U
NORAD_CAT_ID   = 68344
ELEMENT_SET_NO = 999
REV_AT_EPOCH   = 191
BSTAR          = .15899737E-2
MEAN_MOTION_DOT = .325349E-2
MEAN_MOTION_DDOT = 0

CCSDS_OMM_VERS = 2.0
CREATION_DATE  = 
ORIGINATOR     = 

OBJECT_NAME    = STARLINK-37214
OBJECT_ID      = 2026-059AA
CENTER_NAME    = EARTH
REF_FRAME      = TEME
TIME_SYSTEM    = UTC
MEAN_ELEMENT_THEORY = SGP/SGP4

EPOCH          = 2026-04-03T15:30:02.889792
MEAN_MOTION    = 15.80894544
ECCENTRICITY   = .00008114
INCLINATION    = 53.1602
RA_OF_ASC_NODE = 237.5991
ARG_OF_PERICENTER = 28.2648
MEAN_ANOMALY   = 331.8419

EPHEMERIS_TYPE = 0
CLASSIFICATION_TYPE = U
NORAD_CAT_ID   = 68345
ELEMENT_SET_NO = 999
REV_AT_EPOCH   = 192
BSTAR          = .19315582E-2
MEAN_MOTION_DOT = .399096E-2
MEAN_MOTION_DDOT = 0

CCSDS_OMM_VERS = 2.0
CREATION_DATE  = 
ORIGINATOR     = 

OBJECT_NAME    = STARLINK-37169
OBJECT_ID      = 2026-059AB
CENTER_NAME    = EARTH
REF_FRAME      = TEME
TIME_SYSTEM    = UTC
MEAN_ELEMENT_THEORY = SGP/SGP4

EPOCH          = 2026-04-03T15:28:58.041408
MEAN_MOTION    = 15.80887407
ECCENTRICITY   = .00005897
INCLINATION    = 53.1600
RA_OF_ASC_NODE = 237.5938
ARG_OF_PERICENTER = 79.9197
MEAN_ANOMALY   = 280.1892

EPHEMERIS_TYPE = 0
CLASSIFICATION_TYPE = U
NORAD_CAT_ID   = 68346
ELEMENT_SET_NO = 999
REV_AT_EPOCH   = 192
BSTAR          = .17671159E-2
MEAN_MOTION_DOT = .363416E-2
MEAN_MOTION_DDOT = 0

CCSDS_OMM_VERS = 2.0
CREATION_DATE  = 
ORIGINATOR     = 

OBJECT_NAME    = STARLINK-37136
OBJECT_ID      = 2026-059AC
CENTER_NAME    = EARTH
REF_FRAME      = TEME
TIME_SYSTEM    = UTC
MEAN_ELEMENT_THEORY = SGP/SGP4

EPOCH          = 2026-04-03T15:27:53.244000
MEAN_MOTION    = 15.80882036
ECCENTRICITY   = .00011896
INCLINATION    = 53.1595
RA_OF_ASC_NODE = 237.5894
ARG_OF_PERICENTER = 38.1537
MEAN_ANOMALY   = 321.9570

EPHEMERIS_TYPE = 0
CLASSIFICATION_TYPE = U
NORAD_CAT_ID   = 68347
ELEMENT_SET_NO = 999
REV_AT_EPOCH   = 192
BSTAR          = .18051764E-2
MEAN_MOTION_DOT = .371503E-2
MEAN_MOTION_DDOT = 0

CCSDS_OMM_VERS = 2.0
CREATION_DATE  = 
ORIGINATOR     = 

OBJECT_NAME    = STARLINK-37182
OBJECT_ID      = 2026-059AD
CENTER_NAME    = EARTH
REF_FRAME      = TEME
TIME_SYSTEM    = UTC
MEAN_ELEMENT_THEORY = SGP/SGP4

EPOCH          = 2026-04-03T15:31:06.312576
MEAN_MOTION    = 15.80980711
ECCENTRICITY   = .00008832
INCLINATION    = 53.1598
RA_OF_ASC_NODE = 237.6042
ARG_OF_PERICENTER = 28.5403
MEAN_ANOMALY   = 331.5668

EPHEMERIS_TYPE = 0
CLASSIFICATION_TYPE = U
NORAD_CAT_ID   = 68348
ELEMENT_SET_NO = 999
REV_AT_EPOCH   = 192
BSTAR          = .15813898E-2
MEAN_MOTION_DOT = .325069E-2
MEAN_MOTION_DDOT = 0

