STARLINK-36237          
1 68337U 26059S   26093.58938109  .00374001  00000+0  18058-2 0  9990
2 68337  53.1599 237.9619 0001070  71.6870 288.4269 15.81013885  1915
STARLINK-36254          
1 68338U 26059T   26093.52467259  .00306365  00000+0  15023-2 0  9995
2 68338  53.1602 238.2689 0002313 336.2859  23.8057 15.80858082  1900
STARLINK-37200          
1 68339U 26059U   26093.52542316  .00151661  00000+0  76118-3 0  9994
2 68339  53.1597 238.2736 0000965 112.0386 248.0739 15.80796263  1903
STARLINK-37185          
1 68340U 26059V   26093.58712913  .00355435  00000+0  17202-2 0  9997
2 68340  53.1601 237.9465 0000297  51.5781 308.5268 15.81010365  1913
STARLINK-37181          
1 68341U 26059W   26093.58639712  .00216982  00000+0  10778-2 0  9997
2 68341  53.1602 237.9420 0000980  66.4598 293.6528 15.80826773  1916
STARLINK-37192          
1 68342U 26059X   26093.58489730  .00215170  00000+0  10693-2 0  9995
2 68342  53.1599 237.9314 0000957 110.0831 250.0295 15.80821483  1915
STARLINK-37158          
1 68343U 26059Y   26093.64735249  .00270889  00000+0  13282-2 0  9997
2 68343  53.1598 237.6100 0001606  32.6482 327.4640 15.80958497  1928
STARLINK-36380          
1 68344U 26059Z   26093.58564170  .00325349  00000+0  15900-2 0  9995
2 68344  53.1607 237.9373 0000666 119.0321 241.0769 15.80880607  1911
STARLINK-37214          
1 68345U 26059AA  26093.64586678  .00399096  00000+0  19316-2 0  9995
2 68345  53.1602 237.5991 0000811  28.2648 331.8419 15.80894544  1920
STARLINK-37169          
1 68346U 26059AB  26093.64511622  .00363416  00000+0  17671-2 0  9992
2 68346  53.1600 237.5938 0000589  79.9197 280.1892 15.80887407  1925
STARLINK-37136          
1 68347U 26059AC  26093.64436625  .00371503  00000+0  18052-2 0  9992
2 68347  53.1595 237.5894 0001189  38.1537 321.9570 15.80882036  1922
STARLINK-37182          
1 68348U 26059AD  26093.64660084  .00325069  00000+0  15814-2 0  9990
2 68348  53.1598 237.6042 0000883  28.5403 331.5668 15.80980711  1921
